GEOSCAN 3 (RS92S3)      
1 64893U 25155T   26160.24126108  .00015112  00000+0  44510-3 0  9993
2 64893  97.4532 130.0270 0005528 186.3967 173.7207 15.35128639 79630
INNOSAT 3 (RS92S0)      
1 64894U 25155U   26160.27402408  .00034881  00000+0  78350-3 0  9990
2 64894  97.4483 131.5838 0005068 171.7009 188.4323 15.43270844 79745
KNACKSAT-2              
1 67683U 98067XZ  26160.21299138  .00044471  00000+0  55732-3 0  9994
2 67683  51.6310 334.5675 0010139 180.3402 179.7586 15.59248117 19032
