OBJECT_NAME,OBJECT_ID,EPOCH,MEAN_MOTION,ECCENTRICITY,INCLINATION,RA_OF_ASC_NODE,ARG_OF_PERICENTER,MEAN_ANOMALY,EPHEMERIS_TYPE,CLASSIFICATION_TYPE,NORAD_CAT_ID,ELEMENT_SET_NO,REV_AT_EPOCH,BSTAR,MEAN_MOTION_DOT,MEAN_MOTION_DDOT
GEOSCAN 3 (RS92S3),2025-155T,2026-06-09T05:47:24.957312,15.35128639,.00055284,97.4532,130.0270,186.3967,173.7207,0,U,64893,999,7963,.44510103E-3,.15112E-3,0
INNOSAT 3 (RS92S0),2025-155U,2026-06-09T06:34:35.680512,15.43270844,.00050687,97.4483,131.5838,171.7009,188.4323,0,U,64894,999,7974,.78350075E-3,.34881E-3,0
KNACKSAT-2,1998-067XZ,2026-06-09T05:06:42.455232,15.59248117,.00101391,51.6310,334.5675,180.3402,179.7586,0,U,67683,999,1903,.55731746E-3,.44471E-3,0
